[{"OBJECT_NAME":"GEESAT-1 07","OBJECT_ID":"2022-058G","EPOCH":"2026-03-09T22:03:59.499360","MEAN_MOTION":14.81010409,"ECCENTRICITY":0.0013079,"INCLINATION":49.9882,"RA_OF_ASC_NODE":299.8665,"ARG_OF_PERICENTER":75.3998,"MEAN_ANOMALY":284.8389,"EPHEMERIS_TYPE":0,"CLASSIFICATION_TYPE":"U","NORAD_CAT_ID":52791,"ELEMENT_SET_NO":999,"REV_AT_EPOCH":20521,"BSTAR":0.0003741149,"MEAN_MOTION_DOT":2.71e-5,"MEAN_MOTION_DDOT":0},{"OBJECT_NAME":"KUIPER-00265","OBJECT_ID":"2025-301AC","EPOCH":"2026-03-09T06:22:57.135648","MEAN_MOTION":14.79930637,"ECCENTRICITY":0.00010748,"INCLINATION":51.9029,"RA_OF_ASC_NODE":87.4864,"ARG_OF_PERICENTER":14.0984,"MEAN_ANOMALY":346.0008,"EPHEMERIS_TYPE":0,"CLASSIFICATION_TYPE":"U","NORAD_CAT_ID":67159,"ELEMENT_SET_NO":999,"REV_AT_EPOCH":1342,"BSTAR":-0.00066631474,"MEAN_MOTION_DOT":-5.296e-5,"MEAN_MOTION_DDOT":0}]
